{
  "norad_id": 58536,
  "name": "CREW DRAGON C212",
  "line1": "1 58536U 23185A   24001.50000000  .00015000  00000-0  95000-4 0  9995",
  "line2": "2 58536  51.6400 215.0000 0002000  25.0000 335.0000 15.50000000 30000",
  "epoch": "24001.50000000"
}
